[{"OBJECT_NAME":"NUSAT-35 (WILLIAMINA)","OBJECT_ID":"2023-001AR","EPOCH":"2026-03-09T22:28:40.425600","MEAN_MOTION":15.3245616,"ECCENTRICITY":0.00136635,"INCLINATION":97.1993,"RA_OF_ASC_NODE":124.278,"ARG_OF_PERICENTER":97.0313,"MEAN_ANOMALY":263.2484,"EPHEMERIS_TYPE":0,"CLASSIFICATION_TYPE":"U","NORAD_CAT_ID":55048,"ELEMENT_SET_NO":999,"REV_AT_EPOCH":17719,"BSTAR":0.00053479647,"MEAN_MOTION_DOT":0.0001675,"MEAN_MOTION_DDOT":0},{"OBJECT_NAME":"STARLINK-34151","OBJECT_ID":"2025-110AA","EPOCH":"2026-03-09T06:28:33.128832","MEAN_MOTION":15.3020625,"ECCENTRICITY":0.00011328,"INCLINATION":53.1611,"RA_OF_ASC_NODE":29.032,"ARG_OF_PERICENTER":98.8965,"MEAN_ANOMALY":261.2164,"EPHEMERIS_TYPE":0,"CLASSIFICATION_TYPE":"U","NORAD_CAT_ID":64120,"ELEMENT_SET_NO":999,"REV_AT_EPOCH":4581,"BSTAR":0.0010903078,"MEAN_MOTION_DOT":0.00032078,"MEAN_MOTION_DDOT":0}]
